start=new Date('2021-12-09T00:00:00.000Z').valueOf();
sats=[{"TLE_LINE1":"1 45532U 20025B   21342.91344900 -.00000353  00000-0 -47698-5 0  9992","EPHEMERIS_TYPE":"0","MEAN_ELEMENT_THEORY":"SGP4","CLASSIFICATION_TYPE":"U","PERIOD":"95.592","DECAY_DATE":null,"ECCENTRICITY":"0.00023910","ELEMENT_SET_NO":"999","LAUNCH_DATE":"2020-04-22","FILE":"3235972","REF_FRAME":"TEME","INCLINATION":"53.0548","MEAN_MOTION":"15.06394599","ARG_OF_PERICENTER":"68.3780","MEAN_ANOMALY":"291.7464","OBJECT_NAME":"STARLINK-1338","APOAPSIS":"548.886","GP_ID":"191363091","RA_OF_ASC_NODE":"232.8137","COUNTRY_CODE":"US","BSTAR":"-0.00000476980000","MEAN_MOTION_DDOT":"0.0000000000000","EPOCH":"2021-12-08T21:55:21.993600","PERIAPSIS":"545.574","TLE_LINE2":"2 45532  53.0548 232.8137 0002391  68.3780 291.7464 15.06394599 91205","CENTER_NAME":"EARTH","REV_AT_EPOCH":"9120","SITE":"AFETR","TIME_SYSTEM":"UTC","NORAD_CAT_ID":"45532","RCS_SIZE":"LARGE","OBJECT_TYPE":"PAYLOAD","MEAN_MOTION_DOT":"-0.00000353","OBJECT_ID":"2020-025B","SEMIMAJOR_AXIS":"6925.365"},{"EPHEMERIS_TYPE":"0","TLE_LINE1":"1 45533U 20025C   21342.92598188  .00008143  00000-0  33829-3 0  9995","MEAN_ELEMENT_THEORY":"SGP4","ECCENTRICITY":"0.00014080","CLASSIFICATION_TYPE":"U","DECAY_DATE":null,"PERIOD":"94.446","MEAN_MOTION":"15.24684655","MEAN_ANOMALY":"257.3041","ARG_OF_PERICENTER":"102.8113","ELEMENT_SET_NO":"999","LAUNCH_DATE":"2020-04-22","INCLINATION":"53.0445","FILE":"3235972","REF_FRAME":"TEME","GP_ID":"191362841","OBJECT_NAME":"STARLINK-1339","APOAPSIS":"492.702","EPOCH":"2021-12-08T22:13:24.834432","PERIAPSIS":"490.767","TLE_LINE2":"2 45533  53.0445 229.2164 0001408 102.8113 257.3041 15.24684655 91253","RA_OF_ASC_NODE":"229.2164","COUNTRY_CODE":"US","BSTAR":"0.00033829000000","MEAN_MOTION_DDOT":"0.0000000000000","CENTER_NAME":"EARTH","NORAD_CAT_ID":"45533","TIME_SYSTEM":"UTC","RCS_SIZE":"LARGE","REV_AT_EPOCH":"9125","SITE":"AFETR","OBJECT_ID":"2020-025C","SEMIMAJOR_AXIS":"6869.870","MEAN_MOTION_DOT":"0.00008143","OBJECT_TYPE":"PAYLOAD"},{"DECAY_DATE":null,"PERIOD":"95.592","CLASSIFICATION_TYPE":"U","ECCENTRICITY":"0.00021980","MEAN_ELEMENT_THEORY":"SGP4","TLE_LINE1":"1 45534U 20025D   21342.92451010 -.00000590  00000-0 -20718-4 0  9992","EPHEMERIS_TYPE":"0","APOAPSIS":"548.737","OBJECT_NAME":"STARLINK-1341","GP_ID":"191361589","FILE":"3235972","REF_FRAME":"TEME","INCLINATION":"53.0537","LAUNCH_DATE":"2020-04-22","ELEMENT_SET_NO":"999","MEAN_ANOMALY":"288.2240","ARG_OF_PERICENTER":"71.8988","MEAN_MOTION":"15.06399505","CENTER_NAME":"EARTH","MEAN_MOTION_DDOT":"0.0000000000000","BSTAR":"-0.00002071800000","COUNTRY_CODE":"US","RA_OF_ASC_NODE":"232.7676","TLE_LINE2":"2 45534  53.0537 232.7676 0002198  71.8988 288.2240 15.06399505 91201","PERIAPSIS":"545.693","EPOCH":"2021-12-08T22:11:17.672640","MEAN_MOTION_DOT":"-0.00000590","OBJECT_TYPE":"PAYLOAD","SEMIMAJOR_AXIS":"6925.350","OBJECT_ID":"2020-025D","SITE":"AFETR","REV_AT_EPOCH":"9120","RCS_SIZE":"LARGE","TIME_SYSTEM":"UTC","NORAD_CAT_ID":"45534"},{"EPHEMERIS_TYPE":"0","TLE_LINE1":"1 45535U 20025E   21342.94294510 -.00000851  00000-0 -38222-4 0  9994","MEAN_ELEMENT_THEORY":"SGP4","CLASSIFICATION_TYPE":"U","PERIOD":"95.593","DECAY_DATE":null,"ECCENTRICITY":"0.00020030","ELEMENT_SET_NO":"999","LAUNCH_DATE":"2020-04-22","FILE":"3235972","REF_FRAME":"TEME","INCLINATION":"53.0546","MEAN_MOTION":"15.06388799","MEAN_ANOMALY":"290.7392","ARG_OF_PERICENTER":"69.3812","OBJECT_NAME":"STARLINK-1350","APOAPSIS":"548.635","GP_ID":"191361839","RA_OF_ASC_NODE":"232.6928","COUNTRY_CODE":"US","BSTAR":"-0.00003822200000","MEAN_MOTION_DDOT":"0.0000000000000","EPOCH":"2021-12-08T22:37:50.456640","PERIAPSIS":"545.861","TLE_LINE2":"2 45535  53.0546 232.6928 0002003  69.3812 290.7392 15.06388799 91214","CENTER_NAME":"EARTH","REV_AT_EPOCH":"9121","SITE":"AFETR","NORAD_CAT_ID":"45535","TIME_SYSTEM":"UTC","RCS_SIZE":"LARGE","MEAN_MOTION_DOT":"-0.00000851","OBJECT_TYPE":"PAYLOAD","OBJECT_ID":"2020-025E","SEMIMAJOR_AXIS":"6925.383"},{"CENTER_NAME":"EARTH","RA_OF_ASC_NODE":"232.6675","COUNTRY_CODE":"US","BSTAR":"0.00007924700000","MEAN_MOTION_DDOT":"0.0000000000000","EPOCH":"2021-12-08T22:43:08.483808","PERIAPSIS":"545.745","TLE_LINE2":"2 45536  53.0539 232.6675 0002132  69.0314 291.0903 15.06397375 91204","OBJECT_TYPE":"PAYLOAD","MEAN_MOTION_DOT":"0.00000899","OBJECT_ID":"2020-025F","SEMIMAJOR_AXIS":"6925.357","REV_AT_EPOCH":"9120","SITE":"AFETR","NORAD_CAT_ID":"45536","TIME_SYSTEM":"UTC","RCS_SIZE":"LARGE","CLASSIFICATION_TYPE":"U","PERIOD":"95.592","DECAY_DATE":null,"ECCENTRICITY":"0.00021320","EPHEMERIS_TYPE":"0","TLE_LINE1":"1 45536U 20025F   21342.94662597  .00000899  00000-0  79247-4 0  9991","MEAN_ELEMENT_THEORY":"SGP4","OBJECT_NAME":"STARLINK-1352","APOAPSIS":"548.698","GP_ID":"191362591","ELEMENT_SET_NO":"999","LAUNCH_DATE":"2020-04-22","FILE":"3235972","INCLINATION":"53.0539","REF_FRAME":"TEME","MEAN_MOTION":"15.06397375","MEAN_ANOMALY":"291.0903","ARG_OF_PERICENTER":"69.0314"},{"ELEMENT_SET_NO":"999","LAUNCH_DATE":"2020-04-22","FILE":"3235972","INCLINATION":"53.0007","REF_FRAME":"TEME","MEAN_MOTION":"15.15726080","ARG_OF_PERICENTER":"124.7984","MEAN_ANOMALY":"235.3323","OBJECT_NAME":"STARLINK-1353","APOAPSIS":"521.082","GP_ID":"191363342","TLE_LINE1":"1 45537U 20025G   21342.92893389  .00003032  00000-0  17315-3 0  9994","EPHEMERIS_TYPE":"0","MEAN_ELEMENT_THEORY":"SGP4","CLASSIFICATION_TYPE":"U","PERIOD":"95.004","DECAY_DATE":null,"ECCENTRICITY":"0.00033420","REV_AT_EPOCH":"9157","SITE":"AFETR","NORAD_CAT_ID":"45537","TIME_SYSTEM":"UTC","RCS_SIZE":"LARGE","OBJECT_TYPE":"PAYLOAD","MEAN_MOTION_DOT":"0.00003032","OBJECT_ID":"2020-025G","SEMIMAJOR_AXIS":"6896.912","RA_OF_ASC_NODE":"205.1833","COUNTRY_CODE":"US","BSTAR":"0.00017315000000","MEAN_MOTION_DDOT":"0.0000000000000","EPOCH":"2021-12-08T22:17:39.888096","PERIAPSIS":"516.472","TLE_LINE2":"2 45537  53.0007 205.1833 0003342 124.7984 235.3323 15.15726080 91578","CENTER_NAME":"EARTH"},{"OBJECT_TYPE":"PAYLOAD","MEAN_MOTION_DOT":"0.00000844","SEMIMAJOR_AXIS":"6925.362","OBJECT_ID":"2020-025H","SITE":"AFETR","REV_AT_EPOCH":"9120","RCS_SIZE":"LARGE","NORAD_CAT_ID":"45538","TIME_SYSTEM":"UTC","CENTER_NAME":"EARTH","MEAN_MOTION_DDOT":"0.0000000000000","BSTAR":"0.00007558500000","COUNTRY_CODE":"US","RA_OF_ASC_NODE":"232.8465","TLE_LINE2":"2 45538  53.0545 232.8465 0002051  73.7817 286.3397 15.06395614 91200","PERIAPSIS":"545.807","EPOCH":"2021-12-08T21:44:45.155616","APOAPSIS":"548.647","OBJECT_NAME":"STARLINK-1362","GP_ID":"191362090","REF_FRAME":"TEME","FILE":"3235972","INCLINATION":"53.0545","LAUNCH_DATE":"2020-04-22","ELEMENT_SET_NO":"999","MEAN_ANOMALY":"286.3397","ARG_OF_PERICENTER":"73.7817","MEAN_MOTION":"15.06395614","PERIOD":"95.592","DECAY_DATE":null,"CLASSIFICATION_TYPE":"U","ECCENTRICITY":"0.00020510","MEAN_ELEMENT_THEORY":"SGP4","EPHEMERIS_TYPE":"0","TLE_LINE1":"1 45538U 20025H   21342.90607819  .00000844  00000-0  75585-4 0  9996"},{"APOAPSIS":"340.982","OBJECT_NAME":"STARLINK-1367","GP_ID":"191362340","FILE":"3235972","INCLINATION":"53.0516","REF_FRAME":"TEME","LAUNCH_DATE":"2020-04-22","ELEMENT_SET_NO":"999","ARG_OF_PERICENTER":"34.0840","MEAN_ANOMALY":"326.0296","MEAN_MOTION":"15.76713339","DECAY_DATE":null,"PERIOD":"91.329","CLASSIFICATION_TYPE":"U","ECCENTRICITY":"0.00018160","MEAN_ELEMENT_THEORY":"SGP4","EPHEMERIS_TYPE":"0","TLE_LINE1":"1 45539U 20025J   21342.88965060  .00030954  00000-0  19254-3 0  9994","OBJECT_TYPE":"PAYLOAD","MEAN_MOTION_DOT":"0.00030954","SEMIMAJOR_AXIS":"6717.897","OBJECT_ID":"2020-025J","SITE":"AFETR","REV_AT_EPOCH":"9266","RCS_SIZE":"LARGE","TIME_SYSTEM":"UTC","NORAD_CAT_ID":"45539","CENTER_NAME":"EARTH","MEAN_MOTION_DDOT":"0.0000000000000","BSTAR":"0.00019254000000","COUNTRY_CODE":"US","RA_OF_ASC_NODE":"127.0014","TLE_LINE2":"2 45539  53.0516 127.0014 0001816  34.0840 326.0296 15.76713339 92664","PERIAPSIS":"338.542","EPOCH":"2021-12-08T21:21:05.811840"},{"GP_ID":"191363092","APOAPSIS":"548.703","OBJECT_NAME":"STARLINK-1368","MEAN_ANOMALY":"285.5344","ARG_OF_PERICENTER":"74.5880","MEAN_MOTION":"15.06393893","INCLINATION":"53.0529","FILE":"3235972","REF_FRAME":"TEME","LAUNCH_DATE":"2020-04-22","ELEMENT_SET_NO":"999","ECCENTRICITY":"0.00021240","DECAY_DATE":null,"PERIOD":"95.593","CLASSIFICATION_TYPE":"U","MEAN_ELEMENT_THEORY":"SGP4","EPHEMERIS_TYPE":"0","TLE_LINE1":"1 45540U 20025K   21342.88396925  .00001355  00000-0  10989-3 0  9993","SEMIMAJOR_AXIS":"6925.367","OBJECT_ID":"2020-025K","MEAN_MOTION_DOT":"0.00001355","OBJECT_TYPE":"PAYLOAD","RCS_SIZE":"LARGE","NORAD_CAT_ID":"45540","TIME_SYSTEM":"UTC","SITE":"AFETR","REV_AT_EPOCH":"9119","CENTER_NAME":"EARTH","TLE_LINE2":"2 45540  53.0529 232.9503 0002124  74.5880 285.5344 15.06393893 91197","PERIAPSIS":"545.761","EPOCH":"2021-12-08T21:12:54.943200","MEAN_MOTION_DDOT":"0.0000000000000","BSTAR":"0.00010989000000","COUNTRY_CODE":"US","RA_OF_ASC_NODE":"232.9503"},{"CENTER_NAME":"EARTH","MEAN_MOTION_DDOT":"0.0000000000000","BSTAR":"-0.00000066089000","COUNTRY_CODE":"US","RA_OF_ASC_NODE":"232.9290","TLE_LINE2":"2 45541  53.0535 232.9290 0002090  71.7265 288.3951 15.06389881 91193","PERIAPSIS":"545.797","EPOCH":"2021-12-08T21:18:13.032576","MEAN_MOTION_DOT":"-0.00000292","OBJECT_TYPE":"PAYLOAD","SEMIMAJOR_AXIS":"6925.380","OBJECT_ID":"2020-025L","SITE":"AFETR","REV_AT_EPOCH":"9119","RCS_SIZE":"LARGE","NORAD_CAT_ID":"45541","TIME_SYSTEM":"UTC","PERIOD":"95.593","DECAY_DATE":null,"CLASSIFICATION_TYPE":"U","ECCENTRICITY":"0.00020900","MEAN_ELEMENT_THEORY":"SGP4","EPHEMERIS_TYPE":"0","TLE_LINE1":"1 45541U 20025L   21342.88765084 -.00000292  00000-0 -66089-6 0  9996","APOAPSIS":"548.692","OBJECT_NAME":"STARLINK-1369","GP_ID":"191362842","REF_FRAME":"TEME","FILE":"3235972","INCLINATION":"53.0535","LAUNCH_DATE":"2020-04-22","ELEMENT_SET_NO":"999","ARG_OF_PERICENTER":"71.7265","MEAN_ANOMALY":"288.3951","MEAN_MOTION":"15.06389881"}];
